0 CZ-4 R/B
1 19468U 88080B   13283.59693506  .00000019  00000-0  39043-4 0  9681
2 19468 098.9888 248.6262 0072258 157.5943 310.8024 14.03381928284548
0 CZ-4 R/B
1 19468U 88080B   13285.93919740  .00000165  00000-0  13025-3 0  9708
2 19468 098.9893 250.9406 0072329 151.1978 264.2137 14.03381138284873
0 CZ-4 R/B
1 19468U 88080B   13287.08118888  .00000239  00000-0  17646-3 0  9716
2 19468 098.9898 252.0690 0072347 148.0809 273.6989 14.03380998285035
0 CZ-4 R/B
1 19468U 88080B   13288.51621685  .00000331  00000-0  23420-3 0  9720
2 19468 098.9904 253.4869 0072365 144.1657 323.6391 14.03381245285235
0 CZ-4 R/B
1 19468U 88080B   13289.86173397  .00000389  00000-0  27044-3 0  9731
2 19468 098.9909 254.8164 0072395 140.4699 281.3855 14.03381785285426
0 CZ-4 R/B
1 19468U 88080B   13291.07318383  .00000417  00000-0  28808-3 0  9745
2 19468 098.9914 256.0135 0072451 137.1210 281.8275 14.03382428285593
0 CZ-4 R/B
1 19468U 88080B   13292.51461192  .00000424  00000-0  29239-3 0  9750
2 19468 098.9919 257.4380 0072457 133.1753 004.1205 14.03383556285793
0 CZ-4 R/B
1 19468U 88080B   13293.85879269  .00000406  00000-0  28070-3 0  9769
2 19468 098.9922 258.7665 0072492 129.4649 315.1418 14.03384843285980
0 CZ-4 R/B
1 19468U 88080B   13294.99118127  .00000372  00000-0  25951-3 0  9772
2 19468 098.9924 259.8858 0072510 126.3402 276.1569 14.03386150286147
0 CZ-4 R/B
1 19468U 88080B   13296.13450512  .00000311  00000-0  22146-3 0  9784
2 19468 098.9926 261.0160 0072542 123.1825 292.4261 14.03387492286307
